start=new Date('2021-10-25T00:00:00.000Z').valueOf();
sats=[{"TLE_LINE1":"1 48329U 21036BF  21297.78143810  .00001494  00000-0  11917-3 0  9991","INCLINATION":"53.0560","OBJECT_NAME":"STARLINK-2510","PERIOD":"95.592","NORAD_CAT_ID":"48329","PERIAPSIS":"546.402","RCS_SIZE":"LARGE","OBJECT_TYPE":"PAYLOAD","SEMIMAJOR_AXIS":"6925.360","ELEMENT_SET_NO":"999","RA_OF_ASC_NODE":"70.4095","ECCENTRICITY":"0.00011890","MEAN_MOTION_DDOT":"0.0000000000000","SITE":"AFETR","FILE":"3182768","REF_FRAME":"TEME","DECAY_DATE":null,"TLE_LINE2":"2 48329  53.0560  70.4095 0001189  95.7281 264.3843 15.06396209 27340","OBJECT_ID":"2021-036BF","MEAN_ELEMENT_THEORY":"SGP4","EPHEMERIS_TYPE":"0","CENTER_NAME":"EARTH","TIME_SYSTEM":"UTC","MEAN_MOTION_DOT":"0.00001494","ARG_OF_PERICENTER":"95.7281","COUNTRY_CODE":"US","GP_ID":"188106103","CLASSIFICATION_TYPE":"U","MEAN_ANOMALY":"264.3843","LAUNCH_DATE":"2021-04-29","APOAPSIS":"548.049","BSTAR":"0.00011917000000","REV_AT_EPOCH":"2734","MEAN_MOTION":"15.06396209","EPOCH":"2021-10-24T18:45:16.251840"},{"REV_AT_EPOCH":"2794","EPOCH":"2021-10-24T20:15:29.522880","MEAN_MOTION":"15.06402188","COUNTRY_CODE":"US","GP_ID":"188081777","CLASSIFICATION_TYPE":"U","MEAN_ANOMALY":"285.5084","ARG_OF_PERICENTER":"74.6047","MEAN_MOTION_DOT":"0.00001615","TIME_SYSTEM":"UTC","CENTER_NAME":"EARTH","EPHEMERIS_TYPE":"0","OBJECT_ID":"2021-036BG","MEAN_ELEMENT_THEORY":"SGP4","TLE_LINE2":"2 48330  53.0564  70.1339 0001285  74.6047 285.5084 15.06402188 27949","BSTAR":"0.00012730000000","APOAPSIS":"548.097","LAUNCH_DATE":"2021-04-29","OBJECT_TYPE":"PAYLOAD","REF_FRAME":"TEME","DECAY_DATE":null,"FILE":"3182646","SITE":"AFETR","MEAN_MOTION_DDOT":"0.0000000000000","ECCENTRICITY":"0.00012850","SEMIMAJOR_AXIS":"6925.342","ELEMENT_SET_NO":"999","RA_OF_ASC_NODE":"70.1339","OBJECT_NAME":"STARLINK-2501","INCLINATION":"53.0564","TLE_LINE1":"1 48330U 21036BG  21297.84409170  .00001615  00000-0  12730-3 0  9993","RCS_SIZE":"LARGE","PERIAPSIS":"546.317","NORAD_CAT_ID":"48330","PERIOD":"95.592"},{"TLE_LINE2":"2 48331  53.0560  70.4426 0001452  87.9869 272.1287 15.06408365 27345","OBJECT_ID":"2021-036BH","MEAN_ELEMENT_THEORY":"SGP4","EPHEMERIS_TYPE":"0","CENTER_NAME":"EARTH","TIME_SYSTEM":"UTC","ARG_OF_PERICENTER":"87.9869","MEAN_MOTION_DOT":"0.00001384","GP_ID":"188105101","CLASSIFICATION_TYPE":"U","COUNTRY_CODE":"US","MEAN_ANOMALY":"272.1287","LAUNCH_DATE":"2021-04-29","APOAPSIS":"548.193","BSTAR":"0.00011174000000","REV_AT_EPOCH":"2734","MEAN_MOTION":"15.06408365","EPOCH":"2021-10-24T18:34:37.519968","TLE_LINE1":"1 48331U 21036BH  21297.77404537  .00001384  00000-0  11174-3 0  9992","INCLINATION":"53.0560","OBJECT_NAME":"STARLINK-2514","PERIOD":"95.592","NORAD_CAT_ID":"48331","PERIAPSIS":"546.182","RCS_SIZE":"LARGE","OBJECT_TYPE":"PAYLOAD","SEMIMAJOR_AXIS":"6925.323","RA_OF_ASC_NODE":"70.4426","ELEMENT_SET_NO":"999","ECCENTRICITY":"0.00014520","MEAN_MOTION_DDOT":"0.0000000000000","SITE":"AFETR","FILE":"3182768","REF_FRAME":"TEME","DECAY_DATE":null},{"ARG_OF_PERICENTER":"94.0332","MEAN_MOTION_DOT":"-0.00000648","MEAN_ANOMALY":"266.0835","GP_ID":"188106353","COUNTRY_CODE":"US","CLASSIFICATION_TYPE":"U","TIME_SYSTEM":"UTC","EPHEMERIS_TYPE":"0","CENTER_NAME":"EARTH","TLE_LINE2":"2 48332  53.0559  70.4597 0001558  94.0332 266.0835 15.06396918 27345","OBJECT_ID":"2021-036BJ","MEAN_ELEMENT_THEORY":"SGP4","BSTAR":"-0.00002462400000","APOAPSIS":"548.302","LAUNCH_DATE":"2021-04-29","REV_AT_EPOCH":"2734","EPOCH":"2021-10-24T18:29:19.782240","MEAN_MOTION":"15.06396918","OBJECT_NAME":"STARLINK-2511","INCLINATION":"53.0559","TLE_LINE1":"1 48332U 21036BJ  21297.77036785 -.00000648  00000-0 -24624-4 0  9998","RCS_SIZE":"LARGE","PERIAPSIS":"546.144","PERIOD":"95.592","NORAD_CAT_ID":"48332","OBJECT_TYPE":"PAYLOAD","FILE":"3182768","DECAY_DATE":null,"REF_FRAME":"TEME","MEAN_MOTION_DDOT":"0.0000000000000","SITE":"AFETR","ECCENTRICITY":"0.00015580","SEMIMAJOR_AXIS":"6925.358","ELEMENT_SET_NO":"999","RA_OF_ASC_NODE":"70.4597"},{"MEAN_MOTION":"15.06398865","EPOCH":"2021-10-24T18:24:01.393056","REV_AT_EPOCH":"2734","LAUNCH_DATE":"2021-04-29","BSTAR":"0.00009919700000","APOAPSIS":"548.056","EPHEMERIS_TYPE":"0","CENTER_NAME":"EARTH","TLE_LINE2":"2 48333  53.0581  70.4923 0001212  85.8122 274.3006 15.06398865 27341","OBJECT_ID":"2021-036BK","MEAN_ELEMENT_THEORY":"SGP4","MEAN_MOTION_DOT":"0.00001196","ARG_OF_PERICENTER":"85.8122","GP_ID":"188106604","CLASSIFICATION_TYPE":"U","COUNTRY_CODE":"US","MEAN_ANOMALY":"274.3006","TIME_SYSTEM":"UTC","ECCENTRICITY":"0.00012120","RA_OF_ASC_NODE":"70.4923","SEMIMAJOR_AXIS":"6925.352","ELEMENT_SET_NO":"999","FILE":"3182768","DECAY_DATE":null,"REF_FRAME":"TEME","MEAN_MOTION_DDOT":"0.0000000000000","SITE":"AFETR","OBJECT_TYPE":"PAYLOAD","PERIAPSIS":"546.378","PERIOD":"95.592","NORAD_CAT_ID":"48333","RCS_SIZE":"LARGE","TLE_LINE1":"1 48333U 21036BK  21297.76668279  .00001196  00000-0  99197-4 0  9991","OBJECT_NAME":"STARLINK-2518","INCLINATION":"53.0581"},{"LAUNCH_DATE":"2021-04-29","BSTAR":"0.00011987000000","APOAPSIS":"548.323","EPHEMERIS_TYPE":"0","CENTER_NAME":"EARTH","TLE_LINE2":"2 48334  53.0563  70.8063 0001607  92.2969 267.8204 15.06401034 27339","OBJECT_ID":"2021-036BL","MEAN_ELEMENT_THEORY":"SGP4","MEAN_MOTION_DOT":"0.00001504","ARG_OF_PERICENTER":"92.2969","COUNTRY_CODE":"US","GP_ID":"188105352","CLASSIFICATION_TYPE":"U","MEAN_ANOMALY":"267.8204","TIME_SYSTEM":"UTC","MEAN_MOTION":"15.06401034","EPOCH":"2021-10-24T16:43:10.309440","REV_AT_EPOCH":"2733","PERIAPSIS":"546.097","PERIOD":"95.592","NORAD_CAT_ID":"48334","RCS_SIZE":"LARGE","TLE_LINE1":"1 48334U 21036BL  21297.69664710  .00001504  00000-0  11987-3 0  9993","OBJECT_NAME":"STARLINK-2470","INCLINATION":"53.0563","ECCENTRICITY":"0.00016070","RA_OF_ASC_NODE":"70.8063","SEMIMAJOR_AXIS":"6925.345","ELEMENT_SET_NO":"999","FILE":"3182768","DECAY_DATE":null,"REF_FRAME":"TEME","MEAN_MOTION_DDOT":"0.0000000000000","SITE":"AFETR","OBJECT_TYPE":"PAYLOAD"},{"REV_AT_EPOCH":"2733","EPOCH":"2021-10-24T16:37:52.308192","MEAN_MOTION":"15.06393763","GP_ID":"188105602","COUNTRY_CODE":"US","CLASSIFICATION_TYPE":"U","MEAN_ANOMALY":"274.8895","ARG_OF_PERICENTER":"85.2257","MEAN_MOTION_DOT":"-0.00000785","TIME_SYSTEM":"UTC","CENTER_NAME":"EARTH","EPHEMERIS_TYPE":"0","MEAN_ELEMENT_THEORY":"SGP4","OBJECT_ID":"2021-036BM","TLE_LINE2":"2 48335  53.0574  70.8193 0001427  85.2257 274.8895 15.06393763 27331","BSTAR":"-0.00003378500000","APOAPSIS":"548.221","LAUNCH_DATE":"2021-04-29","OBJECT_TYPE":"PAYLOAD","DECAY_DATE":null,"REF_FRAME":"TEME","FILE":"3182768","SITE":"AFETR","MEAN_MOTION_DDOT":"0.0000000000000","ECCENTRICITY":"0.00014270","SEMIMAJOR_AXIS":"6925.368","RA_OF_ASC_NODE":"70.8193","ELEMENT_SET_NO":"999","OBJECT_NAME":"STARLINK-2441","INCLINATION":"53.0574","TLE_LINE1":"1 48335U 21036BM  21297.69296653 -.00000785  00000-0 -33785-4 0  9994","RCS_SIZE":"LARGE","PERIAPSIS":"546.244","NORAD_CAT_ID":"48335","PERIOD":"95.593"},{"OBJECT_TYPE":"PAYLOAD","ECCENTRICITY":"0.00013350","RA_OF_ASC_NODE":"330.2024","SEMIMAJOR_AXIS":"6925.350","ELEMENT_SET_NO":"999","REF_FRAME":"TEME","DECAY_DATE":null,"FILE":"3182768","SITE":"AFETR","MEAN_MOTION_DDOT":"0.0000000000000","TLE_LINE1":"1 48353U 21038A   21297.83117964 -.00000210  00000-0  47769-5 0  9999","OBJECT_NAME":"STARLINK-2613","INCLINATION":"53.0556","PERIAPSIS":"546.291","NORAD_CAT_ID":"48353","PERIOD":"95.592","RCS_SIZE":"LARGE","REV_AT_EPOCH":"2634","MEAN_MOTION":"15.06399406","EPOCH":"2021-10-24T19:56:53.920896","CENTER_NAME":"EARTH","EPHEMERIS_TYPE":"0","MEAN_ELEMENT_THEORY":"SGP4","OBJECT_ID":"2021-038A","TLE_LINE2":"2 48353  53.0556 330.2024 0001335  87.3716 272.7426 15.06399406 26345","GP_ID":"188106606","COUNTRY_CODE":"US","CLASSIFICATION_TYPE":"U","MEAN_ANOMALY":"272.7426","MEAN_MOTION_DOT":"-0.00000210","ARG_OF_PERICENTER":"87.3716","TIME_SYSTEM":"UTC","LAUNCH_DATE":"2021-05-04","BSTAR":"0.00000477690000","APOAPSIS":"548.140"},{"OBJECT_TYPE":"PAYLOAD","FILE":"3182768","DECAY_DATE":null,"REF_FRAME":"TEME","MEAN_MOTION_DDOT":"0.0000000000000","SITE":"AFETR","ECCENTRICITY":"0.00011800","SEMIMAJOR_AXIS":"6925.345","RA_OF_ASC_NODE":"330.2054","ELEMENT_SET_NO":"999","OBJECT_NAME":"STARLINK-2674","INCLINATION":"53.0562","TLE_LINE1":"1 48354U 21038B   21297.82751407  .00001621  00000-0  12769-3 0  9991","RCS_SIZE":"LARGE","PERIAPSIS":"546.393","PERIOD":"95.592","NORAD_CAT_ID":"48354","REV_AT_EPOCH":"2634","EPOCH":"2021-10-24T19:51:37.215648","MEAN_MOTION":"15.06401027","ARG_OF_PERICENTER":"75.9575","MEAN_MOTION_DOT":"0.00001621","COUNTRY_CODE":"US","GP_ID":"188105354","MEAN_ANOMALY":"284.1545","CLASSIFICATION_TYPE":"U","TIME_SYSTEM":"UTC","EPHEMERIS_TYPE":"0","CENTER_NAME":"EARTH","TLE_LINE2":"2 48354  53.0562 330.2054 0001180  75.9575 284.1545 15.06401027 26342","OBJECT_ID":"2021-038B","MEAN_ELEMENT_THEORY":"SGP4","BSTAR":"0.00012769000000","APOAPSIS":"548.028","LAUNCH_DATE":"2021-05-04"},{"LAUNCH_DATE":"2021-05-04","APOAPSIS":"548.135","BSTAR":"-0.00002524000000","TLE_LINE2":"2 48355  53.0570 331.7185 0001305  74.9702 285.1432 15.06394349 26886","MEAN_ELEMENT_THEORY":"SGP4","OBJECT_ID":"2021-038C","EPHEMERIS_TYPE":"0","CENTER_NAME":"EARTH","TIME_SYSTEM":"UTC","MEAN_MOTION_DOT":"-0.00000657","ARG_OF_PERICENTER":"74.9702","CLASSIFICATION_TYPE":"U","GP_ID":"188078269","COUNTRY_CODE":"US","MEAN_ANOMALY":"285.1432","MEAN_MOTION":"15.06394349","EPOCH":"2021-10-24T11:48:35.578944","REV_AT_EPOCH":"2688","PERIOD":"95.592","NORAD_CAT_ID":"48355","PERIAPSIS":"546.327","RCS_SIZE":"LARGE","TLE_LINE1":"1 48355U 21038C   21297.49207846 -.00000657  00000-0 -25240-4 0  9997","INCLINATION":"53.0570","OBJECT_NAME":"STARLINK-2635","SEMIMAJOR_AXIS":"6925.366","RA_OF_ASC_NODE":"331.7185","ELEMENT_SET_NO":"999","ECCENTRICITY":"0.00013050","MEAN_MOTION_DDOT":"0.0000000000000","SITE":"AFETR","FILE":"3182510","DECAY_DATE":null,"REF_FRAME":"TEME","OBJECT_TYPE":"PAYLOAD"}];
